[Satellite]
VERSION=1.1
NAME=COSMOS 2485 (747)
NICKNAME=COSMOS 2485 (747)
TLE1=1 39155U 13019A   22341.74924087  .00000001  00000+0  00000+0 0  9999
TLE2=2 39155  64.8492 116.9909 0021590 226.3777 145.9422  2.13101791 74850
STATUS=0
